{
  "type": "FeatureCollection",
  "features": [
    {
      "type": "Feature",
      "properties": {
        "norad_id": 35585,
        "name": "COSMOS 2251 DEB",
        "group": "cosmos-2251-debris",
        "lat": -43.86375677328735,
        "lon": 160.04523042378148,
        "alt_km": 760.2632298336457,
        "timestamp": "2025-12-27T08:36:18.780946+00:00",
        "meta_object_name": "COSMOS 2251 DEB",
        "meta_object_id": "1993-036AMC",
        "meta_epoch": "2025-12-21T09:07:18.442848",
        "meta_mean_motion": 13.75269672,
        "meta_eccentricity": 0.03103986,
        "meta_inclination": 73.9717,
        "meta_ra_of_asc_node": 333.9847,
        "meta_arg_of_pericenter": 244.5384,
        "meta_mean_anomaly": 273.7703,
        "meta_ephemeris_type": 0,
        "meta_classification_type": "U",
        "meta_norad_cat_id": 35585,
        "meta_element_set_no": 999,
        "meta_rev_at_epoch": 64182,
        "meta_bstar": 0.00073727274,
        "meta_mean_motion_dot": 9.8e-06,
        "meta_mean_motion_ddot": 0,
        "tle_line1": "1 35585U 93036AMC 25355.38007457  .00000980  00000+0  73727-3 0  9996",
        "tle_line2": "2 35585  73.9717 333.9847 0310398 244.5384 273.7703 13.75269672641821"
      },
      "geometry": {
        "type": "Point",
        "coordinates": [
          160.04523042378148,
          -43.86375677328735
        ]
      }
    },
    {
      "type": "Feature",
      "properties": {
        "norad_id": 35586,
        "name": "COSMOS 2251 DEB",
        "group": "cosmos-2251-debris",
        "lat": -71.23907350077843,
        "lon": -138.4622846689479,
        "alt_km": 1251.996726678608,
        "timestamp": "2025-12-27T08:36:18.780956+00:00",
        "meta_object_name": "COSMOS 2251 DEB",
        "meta_object_id": "1993-036AMD",
        "meta_epoch": "2025-12-26T12:34:40.833408",
        "meta_mean_motion": 13.5209486,
        "meta_eccentricity": 0.0404139,
        "meta_inclination": 74.0201,
        "meta_ra_of_asc_node": 280.3945,
        "meta_arg_of_pericenter": 152.7777,
        "meta_mean_anomaly": 23.2121,
        "meta_ephemeris_type": 0,
        "meta_classification_type": "U",
        "meta_norad_cat_id": 35586,
        "meta_element_set_no": 999,
        "meta_rev_at_epoch": 60568,
        "meta_bstar": 0.00041333,
        "meta_mean_motion_dot": 4.35e-06,
        "meta_mean_motion_ddot": 0,
        "tle_line1": "1 35586U 93036AMD 25360.52408372  .00000435  00000+0  41333-3 0  9993",
        "tle_line2": "2 35586  74.0201 280.3945 0404139 152.7777  23.2121 13.52094860605685"
      },
      "geometry": {
        "type": "Point",
        "coordinates": [
          -138.4622846689479,
          -71.23907350077843
        ]
      }
    },
    {
      "type": "Feature",
      "properties": {
        "norad_id": 35587,
        "name": "COSMOS 2251 DEB",
        "group": "cosmos-2251-debris",
        "lat": -50.3216993990125,
        "lon": 9.727622997951181,
        "alt_km": 665.0919989522636,
        "timestamp": "2025-12-27T08:36:18.780966+00:00",
        "meta_object_name": "COSMOS 2251 DEB",
        "meta_object_id": "1993-036AME",
        "meta_epoch": "2025-12-24T09:03:29.515680",
        "meta_mean_motion": 14.7155971,
        "meta_eccentricity": 0.01022451,
        "meta_inclination": 74.0058,
        "meta_ra_of_asc_node": 35.7588,
        "meta_arg_of_pericenter": 220.8718,
        "meta_mean_anomaly": 138.4757,
        "meta_ephemeris_type": 0,
        "meta_classification_type": "U",
        "meta_norad_cat_id": 35587,
        "meta_element_set_no": 999,
        "meta_rev_at_epoch": 66517,
        "meta_bstar": 0.00025641607,
        "meta_mean_motion_dot": 1.692e-05,
        "meta_mean_motion_ddot": 0,
        "tle_line1": "1 35587U 93036AME 25358.37742495  .00001692  00000+0  25642-3 0  9992",
        "tle_line2": "2 35587  74.0058  35.7588 0102245 220.8718 138.4757 14.71559710665172"
      },
      "geometry": {
        "type": "Point",
        "coordinates": [
          9.727622997951181,
          -50.3216993990125
        ]
      }
    },
    {
      "type": "Feature",
      "properties": {
        "norad_id": 35593,
        "name": "COSMOS 2251 DEB",
        "group": "cosmos-2251-debris",
        "lat": -1.5915597345542762,
        "lon": 82.59298440327002,
        "alt_km": 800.0843546319447,
        "timestamp": "2025-12-27T08:36:18.780976+00:00",
        "meta_object_name": "COSMOS 2251 DEB",
        "meta_object_id": "1993-036AML",
        "meta_epoch": "2025-12-24T00:35:28.875264",
        "meta_mean_motion": 14.25635831,
        "meta_eccentricity": 0.01050685,
        "meta_inclination": 74.0857,
        "meta_ra_of_asc_node": 268.1373,
        "meta_arg_of_pericenter": 272.0988,
        "meta_mean_anomaly": 86.8131,
        "meta_ephemeris_type": 0,
        "meta_classification_type": "U",
        "meta_norad_cat_id": 35593,
        "meta_element_set_no": 999,
        "meta_rev_at_epoch": 85226,
        "meta_bstar": 0.00070261528,
        "meta_mean_motion_dot": 1.738e-05,
        "meta_mean_motion_ddot": 0,
        "tle_line1": "1 35593U 93036AML 25358.02463976  .00001738  00000+0  70262-3 0  9994",
        "tle_line2": "2 35593  74.0857 268.1373 0105068 272.0988  86.8131 14.25635831852262"
      },
      "geometry": {
        "type": "Point",
        "coordinates": [
          82.59298440327002,
          -1.5915597345542762
        ]
      }
    },
    {
      "type": "Feature",
      "properties": {
        "norad_id": 35594,
        "name": "COSMOS 2251 DEB",
        "group": "cosmos-2251-debris",
        "lat": 6.045048428402696,
        "lon": -104.79689751136817,
        "alt_km": 585.3242984498893,
        "timestamp": "2025-12-27T08:36:18.780987+00:00",
        "meta_object_name": "COSMOS 2251 DEB",
        "meta_object_id": "1993-036AMM",
        "meta_epoch": "2025-12-24T13:41:05.114112",
        "meta_mean_motion": 14.88271884,
        "meta_eccentricity": 0.00288579,
        "meta_inclination": 73.806,
        "meta_ra_of_asc_node": 82.6068,
        "meta_arg_of_pericenter": 193.3523,
        "meta_mean_anomaly": 166.6896,
        "meta_ephemeris_type": 0,
        "meta_classification_type": "U",
        "meta_norad_cat_id": 35594,
        "meta_element_set_no": 999,
        "meta_rev_at_epoch": 88361,
        "meta_bstar": 0.0016876649,
        "meta_mean_motion_dot": 0.00015714,
        "meta_mean_motion_ddot": 0,
        "tle_line1": "1 35594U 93036AMM 25358.57019808  .00015714  00000+0  16877-2 0  9996",
        "tle_line2": "2 35594  73.8060  82.6068 0028857 193.3523 166.6896 14.88271884883617"
      },
      "geometry": {
        "type": "Point",
        "coordinates": [
          -104.79689751136817,
          6.045048428402696
        ]
      }
    },
    {
      "type": "Feature",
      "properties": {
        "norad_id": 35602,
        "name": "COSMOS 2251 DEB",
        "group": "cosmos-2251-debris",
        "lat": -61.72298803576175,
        "lon": 3.0093614370681365,
        "alt_km": 415.268140339439,
        "timestamp": "2025-12-27T08:36:18.780998+00:00",
        "meta_object_name": "COSMOS 2251 DEB",
        "meta_object_id": "1993-036AMV",
        "meta_epoch": "2025-12-26T19:19:37.155360",
        "meta_mean_motion": 15.35665906,
        "meta_eccentricity": 0.00877374,
        "meta_inclination": 73.9943,
        "meta_ra_of_asc_node": 151.9485,
        "meta_arg_of_pericenter": 214.5989,
        "meta_mean_anomaly": 213.8576,
        "meta_ephemeris_type": 0,
        "meta_classification_type": "U",
        "meta_norad_cat_id": 35602,
        "meta_element_set_no": 999,
        "meta_rev_at_epoch": 90307,
        "meta_bstar": 0.00067564138,
        "meta_mean_motion_dot": 0.00026679,
        "meta_mean_motion_ddot": 0,
        "tle_line1": "1 35602U 93036AMV 25360.80529115  .00026679  00000+0  67564-3 0  9994",
        "tle_line2": "2 35602  73.9943 151.9485 0087737 214.5989 213.8576 15.35665906903073"
      },
      "geometry": {
        "type": "Point",
        "coordinates": [
          3.0093614370681365,
          -61.72298803576175
        ]
      }
    },
    {
      "type": "Feature",
      "properties": {
        "norad_id": 35605,
        "name": "COSMOS 2251 DEB",
        "group": "cosmos-2251-debris",
        "lat": 29.545829494528903,
        "lon": -45.714125431411134,
        "alt_km": 457.09139668118314,
        "timestamp": "2025-12-27T08:36:18.781008+00:00",
        "meta_object_name": "COSMOS 2251 DEB",
        "meta_object_id": "1993-036AMY",
        "meta_epoch": "2025-12-22T14:36:44.008416",
        "meta_mean_motion": 15.38179315,
        "meta_eccentricity": 0.00228045,
        "meta_inclination": 73.869,
        "meta_ra_of_asc_node": 315.1978,
        "meta_arg_of_pericenter": 235.9327,
        "meta_mean_anomaly": 123.9715,
        "meta_ephemeris_type": 0,
        "meta_classification_type": "U",
        "meta_norad_cat_id": 35605,
        "meta_element_set_no": 999,
        "meta_rev_at_epoch": 66123,
        "meta_bstar": 0.0066900453,
        "meta_mean_motion_dot": 0.00262511,
        "meta_mean_motion_ddot": 0,
        "tle_line1": "1 35605U 93036AMY 25356.60884269  .00262511  00000+0  66900-2 0  9993",
        "tle_line2": "2 35605  73.8690 315.1978 0022804 235.9327 123.9715 15.38179315661234"
      },
      "geometry": {
        "type": "Point",
        "coordinates": [
          -45.714125431411134,
          29.545829494528903
        ]
      }
    }
  ]
}